start=new Date('2022-06-07T00:00:00.000Z').valueOf();
sats=[{"REV_AT_EPOCH":"9783","ELEMENT_SET_NO":"999","ARG_OF_PERICENTER":"66.4756","DECAY_DATE":null,"OBJECT_TYPE":"PAYLOAD","RA_OF_ASC_NODE":"34.8768","ECCENTRICITY":"0.00019090","SITE":"AFETR","MEAN_ELEMENT_THEORY":"SGP4","LAUNCH_DATE":"2020-09-03","CENTER_NAME":"EARTH","SEMIMAJOR_AXIS":"6925.352","MEAN_MOTION_DOT":"-0.00000501","PERIAPSIS":"545.895","NORAD_CAT_ID":"46330","OBJECT_ID":"2020-062F","EPOCH":"2022-06-06T21:15:40.321440","APOAPSIS":"548.539","MEAN_MOTION":"15.06398953","TLE_LINE1":"1 46330U 20062F   22157.88588335 -.00000501  00000-0 -14710-4 0  9996","INCLINATION":"53.0563","RCS_SIZE":"LARGE","FILE":"3484163","TIME_SYSTEM":"UTC","TLE_LINE2":"2 46330  53.0563  34.8768 0001909  66.4756 293.6434 15.06398953 97836","MEAN_MOTION_DDOT":"0.0000000000000","PERIOD":"95.592","OBJECT_NAME":"STARLINK-1710","BSTAR":"-0.00001471000000","CLASSIFICATION_TYPE":"U","COUNTRY_CODE":"US","REF_FRAME":"TEME","GP_ID":"205499528","MEAN_ANOMALY":"293.6434","EPHEMERIS_TYPE":"0"},{"PERIOD":"95.593","MEAN_MOTION_DDOT":"0.0000000000000","TLE_LINE2":"2 46331  53.0541  55.6198 0001557  50.9048 309.2079 15.06388089 97526","TIME_SYSTEM":"UTC","RCS_SIZE":"LARGE","FILE":"3484350","TLE_LINE1":"1 46331U 20062G   22157.72187744 -.00002751  00000-0 -16590-3 0  9995","MEAN_MOTION":"15.06388089","INCLINATION":"53.0541","APOAPSIS":"548.328","MEAN_ANOMALY":"309.2079","EPHEMERIS_TYPE":"0","GP_ID":"205523112","COUNTRY_CODE":"US","REF_FRAME":"TEME","BSTAR":"-0.00016590000000","CLASSIFICATION_TYPE":"U","OBJECT_NAME":"STARLINK-1719","ECCENTRICITY":"0.00015570","RA_OF_ASC_NODE":"55.6198","OBJECT_TYPE":"PAYLOAD","DECAY_DATE":null,"ARG_OF_PERICENTER":"50.9048","ELEMENT_SET_NO":"999","REV_AT_EPOCH":"9752","EPOCH":"2022-06-06T17:19:30.210816","OBJECT_ID":"2020-062G","NORAD_CAT_ID":"46331","PERIAPSIS":"546.172","MEAN_MOTION_DOT":"-0.00002751","SEMIMAJOR_AXIS":"6925.385","CENTER_NAME":"EARTH","LAUNCH_DATE":"2020-09-03","MEAN_ELEMENT_THEORY":"SGP4","SITE":"AFETR"},{"CLASSIFICATION_TYPE":"U","BSTAR":"-0.00008960200000","OBJECT_NAME":"STARLINK-1721","GP_ID":"205502070","MEAN_ANOMALY":"302.1880","EPHEMERIS_TYPE":"0","COUNTRY_CODE":"US","REF_FRAME":"TEME","APOAPSIS":"548.542","TLE_LINE1":"1 46332U 20062H   22157.86560391 -.00001616  00000-0 -89602-4 0  9998","INCLINATION":"53.0554","MEAN_MOTION":"15.06408669","RCS_SIZE":"LARGE","FILE":"3484253","TIME_SYSTEM":"UTC","MEAN_MOTION_DDOT":"0.0000000000000","PERIOD":"95.592","TLE_LINE2":"2 46332  53.0554  54.9857 0001956  57.9299 302.1880 15.06408669 97724","MEAN_ELEMENT_THEORY":"SGP4","SITE":"AFETR","PERIAPSIS":"545.832","MEAN_MOTION_DOT":"-0.00001616","NORAD_CAT_ID":"46332","OBJECT_ID":"2020-062H","EPOCH":"2022-06-06T20:46:28.177824","LAUNCH_DATE":"2020-09-03","CENTER_NAME":"EARTH","SEMIMAJOR_AXIS":"6925.322","ARG_OF_PERICENTER":"57.9299","DECAY_DATE":null,"REV_AT_EPOCH":"9772","ELEMENT_SET_NO":"999","RA_OF_ASC_NODE":"54.9857","ECCENTRICITY":"0.00019560","OBJECT_TYPE":"PAYLOAD"},{"RA_OF_ASC_NODE":"54.9220","ECCENTRICITY":"0.00017480","OBJECT_TYPE":"PAYLOAD","ARG_OF_PERICENTER":"60.4753","DECAY_DATE":null,"REV_AT_EPOCH":"9772","ELEMENT_SET_NO":"999","MEAN_MOTION_DOT":"0.00000332","PERIAPSIS":"546.001","NORAD_CAT_ID":"46333","OBJECT_ID":"2020-062J","EPOCH":"2022-06-06T21:07:42.487968","LAUNCH_DATE":"2020-09-03","SEMIMAJOR_AXIS":"6925.347","CENTER_NAME":"EARTH","MEAN_ELEMENT_THEORY":"SGP4","SITE":"AFETR","MEAN_MOTION_DDOT":"0.0000000000000","PERIOD":"95.592","TLE_LINE2":"2 46333  53.0562  54.9220 0001748  60.4753 299.6410 15.06400554 97725","APOAPSIS":"548.422","MEAN_MOTION":"15.06400554","TLE_LINE1":"1 46333U 20062J   22157.88035287  .00000332  00000-0  41198-4 0  9992","INCLINATION":"53.0562","FILE":"3484180","RCS_SIZE":"LARGE","TIME_SYSTEM":"UTC","GP_ID":"205500564","MEAN_ANOMALY":"299.6410","EPHEMERIS_TYPE":"0","COUNTRY_CODE":"US","REF_FRAME":"TEME","BSTAR":"0.00004119800000","CLASSIFICATION_TYPE":"U","OBJECT_NAME":"STARLINK-1723"},{"ELEMENT_SET_NO":"999","REV_AT_EPOCH":"9800","DECAY_DATE":null,"ARG_OF_PERICENTER":"61.4638","OBJECT_TYPE":"PAYLOAD","ECCENTRICITY":"0.00020700","RA_OF_ASC_NODE":"35.1551","SITE":"AFETR","MEAN_ELEMENT_THEORY":"SGP4","CENTER_NAME":"EARTH","SEMIMAJOR_AXIS":"6932.858","LAUNCH_DATE":"2020-09-03","EPOCH":"2022-06-06T21:05:59.108640","OBJECT_ID":"2020-062K","NORAD_CAT_ID":"46334","PERIAPSIS":"553.288","MEAN_MOTION_DOT":"0.00000203","TIME_SYSTEM":"UTC","FILE":"3484165","RCS_SIZE":"LARGE","INCLINATION":"53.0572","TLE_LINE1":"1 46334U 20062K   22157.87915635  .00000203  00000-0  34282-4 0  9999","MEAN_MOTION":"15.03953165","APOAPSIS":"556.158","TLE_LINE2":"2 46334  53.0572  35.1551 0002070  61.4638 298.6559 15.03953165 98000","PERIOD":"95.748","MEAN_MOTION_DDOT":"0.0000000000000","OBJECT_NAME":"STARLINK-1725","BSTAR":"0.00003428200000","CLASSIFICATION_TYPE":"U","COUNTRY_CODE":"US","REF_FRAME":"TEME","EPHEMERIS_TYPE":"0","MEAN_ANOMALY":"298.6559","GP_ID":"205500003"},{"MEAN_MOTION_DDOT":"0.0000000000000","PERIOD":"95.592","TLE_LINE2":"2 46335  53.0553  55.6855 0001951  63.1299 296.9889 15.06401671 97529","INCLINATION":"53.0553","TLE_LINE1":"1 46335U 20062L   22157.71079578  .00000050  00000-0  22290-4 0  9996","MEAN_MOTION":"15.06401671","APOAPSIS":"548.560","TIME_SYSTEM":"UTC","RCS_SIZE":"LARGE","FILE":"3484350","GP_ID":"205523613","EPHEMERIS_TYPE":"0","MEAN_ANOMALY":"296.9889","COUNTRY_CODE":"US","REF_FRAME":"TEME","CLASSIFICATION_TYPE":"U","BSTAR":"0.00002229000000","OBJECT_NAME":"STARLINK-1727","ECCENTRICITY":"0.00019510","RA_OF_ASC_NODE":"55.6855","OBJECT_TYPE":"PAYLOAD","ARG_OF_PERICENTER":"63.1299","DECAY_DATE":null,"ELEMENT_SET_NO":"999","REV_AT_EPOCH":"9752","NORAD_CAT_ID":"46335","PERIAPSIS":"545.857","MEAN_MOTION_DOT":"0.00000050","EPOCH":"2022-06-06T17:03:32.755392","OBJECT_ID":"2020-062L","LAUNCH_DATE":"2020-09-03","SEMIMAJOR_AXIS":"6925.343","CENTER_NAME":"EARTH","MEAN_ELEMENT_THEORY":"SGP4","SITE":"AFETR"},{"REV_AT_EPOCH":"9782","ELEMENT_SET_NO":"999","ARG_OF_PERICENTER":"65.7525","DECAY_DATE":null,"OBJECT_TYPE":"PAYLOAD","RA_OF_ASC_NODE":"34.8216","ECCENTRICITY":"0.00018030","SITE":"AFETR","MEAN_ELEMENT_THEORY":"SGP4","LAUNCH_DATE":"2020-09-03","CENTER_NAME":"EARTH","SEMIMAJOR_AXIS":"6925.358","PERIAPSIS":"545.975","MEAN_MOTION_DOT":"0.00000041","NORAD_CAT_ID":"46336","OBJECT_ID":"2020-062M","EPOCH":"2022-06-06T21:36:54.300672","APOAPSIS":"548.472","TLE_LINE1":"1 46336U 20062M   22157.90062848  .00000041  00000-0  21665-4 0  9995","INCLINATION":"53.0551","MEAN_MOTION":"15.06396799","FILE":"3484350","RCS_SIZE":"LARGE","TIME_SYSTEM":"UTC","TLE_LINE2":"2 46336  53.0551  34.8216 0001803  65.7525 294.3652 15.06396799 97821","MEAN_MOTION_DDOT":"0.0000000000000","PERIOD":"95.592","OBJECT_NAME":"STARLINK-1738","BSTAR":"0.00002166500000","CLASSIFICATION_TYPE":"U","COUNTRY_CODE":"US","REF_FRAME":"TEME","GP_ID":"205524360","EPHEMERIS_TYPE":"0","MEAN_ANOMALY":"294.3652"},{"MEAN_MOTION_DOT":"0.00001288","PERIAPSIS":"545.903","NORAD_CAT_ID":"46337","OBJECT_ID":"2020-062N","EPOCH":"2022-06-06T21:58:07.817664","LAUNCH_DATE":"2020-09-03","SEMIMAJOR_AXIS":"6925.334","CENTER_NAME":"EARTH","MEAN_ELEMENT_THEORY":"SGP4","SITE":"AFETR","RA_OF_ASC_NODE":"34.7606","ECCENTRICITY":"0.00018720","OBJECT_TYPE":"PAYLOAD","ARG_OF_PERICENTER":"64.6164","DECAY_DATE":null,"REV_AT_EPOCH":"9783","ELEMENT_SET_NO":"999","GP_ID":"205524609","EPHEMERIS_TYPE":"0","MEAN_ANOMALY":"295.5018","COUNTRY_CODE":"US","REF_FRAME":"TEME","BSTAR":"0.00010533000000","CLASSIFICATION_TYPE":"U","OBJECT_NAME":"STARLINK-1750","MEAN_MOTION_DDOT":"0.0000000000000","PERIOD":"95.592","TLE_LINE2":"2 46337  53.0580  34.7606 0001872  64.6164 295.5018 15.06404772 97830","APOAPSIS":"548.495","TLE_LINE1":"1 46337U 20062N   22157.91536826  .00001288  00000-0  10533-3 0  9994","INCLINATION":"53.0580","MEAN_MOTION":"15.06404772","FILE":"3484350","RCS_SIZE":"LARGE","TIME_SYSTEM":"UTC"},{"ELEMENT_SET_NO":"999","REV_AT_EPOCH":"9754","DECAY_DATE":null,"ARG_OF_PERICENTER":"57.0296","OBJECT_TYPE":"PAYLOAD","ECCENTRICITY":"0.00017060","RA_OF_ASC_NODE":"54.8326","SITE":"AFETR","MEAN_ELEMENT_THEORY":"SGP4","CENTER_NAME":"EARTH","SEMIMAJOR_AXIS":"6925.334","LAUNCH_DATE":"2020-09-03","EPOCH":"2022-06-06T21:34:14.456352","OBJECT_ID":"2020-062P","NORAD_CAT_ID":"46338","MEAN_MOTION_DOT":"0.00000885","PERIAPSIS":"546.017","TIME_SYSTEM":"UTC","FILE":"3484350","RCS_SIZE":"LARGE","MEAN_MOTION":"15.06404864","TLE_LINE1":"1 46338U 20062P   22157.89877843  .00000885  00000-0  78271-4 0  9995","INCLINATION":"53.0562","APOAPSIS":"548.380","TLE_LINE2":"2 46338  53.0562  54.8326 0001706  57.0296 303.0857 15.06404864 97547","PERIOD":"95.592","MEAN_MOTION_DDOT":"0.0000000000000","OBJECT_NAME":"STARLINK-1752","BSTAR":"0.00007827100000","CLASSIFICATION_TYPE":"U","COUNTRY_CODE":"US","REF_FRAME":"TEME","MEAN_ANOMALY":"303.0857","EPHEMERIS_TYPE":"0","GP_ID":"205524833"},{"GP_ID":"205523113","EPHEMERIS_TYPE":"0","MEAN_ANOMALY":"307.4894","REF_FRAME":"TEME","COUNTRY_CODE":"US","CLASSIFICATION_TYPE":"U","BSTAR":"0.00009124800000","OBJECT_NAME":"STARLINK-1759","MEAN_MOTION_DDOT":"0.0000000000000","PERIOD":"95.592","TLE_LINE2":"2 46340  53.0574  54.9574 0001844  52.6263 307.4894 15.06396241 97534","APOAPSIS":"548.502","TLE_LINE1":"1 46340U 20062R   22157.87298161  .00001078  00000-0  91248-4 0  9990","INCLINATION":"53.0574","MEAN_MOTION":"15.06396241","FILE":"3484350","RCS_SIZE":"LARGE","TIME_SYSTEM":"UTC","PERIAPSIS":"545.948","MEAN_MOTION_DOT":"0.00001078","NORAD_CAT_ID":"46340","OBJECT_ID":"2020-062R","EPOCH":"2022-06-06T20:57:05.611104","LAUNCH_DATE":"2020-09-03","CENTER_NAME":"EARTH","SEMIMAJOR_AXIS":"6925.360","MEAN_ELEMENT_THEORY":"SGP4","SITE":"AFETR","RA_OF_ASC_NODE":"54.9574","ECCENTRICITY":"0.00018440","OBJECT_TYPE":"PAYLOAD","ARG_OF_PERICENTER":"52.6263","DECAY_DATE":null,"REV_AT_EPOCH":"9753","ELEMENT_SET_NO":"999"}];
